CCSDS_OMM_VERS = 2.0
CREATION_DATE  = 
ORIGINATOR     = 

OBJECT_NAME    = STARLINK-36699
OBJECT_ID      = 2026-022E
CENTER_NAME    = EARTH
REF_FRAME      = TEME
TIME_SYSTEM    = UTC
MEAN_ELEMENT_THEORY = SGP/SGP4

EPOCH          = 2026-02-16T14:00:01.999872
MEAN_MOTION    = 15.75274554
ECCENTRICITY   = .00012144
INCLINATION    = 97.2841
RA_OF_ASC_NODE = 80.5173
ARG_OF_PERICENTER = 91.8655
MEAN_ANOMALY   = 359.3464

EPHEMERIS_TYPE = 0
CLASSIFICATION_TYPE = U
NORAD_CAT_ID   = 67652
ELEMENT_SET_NO = 999
REV_AT_EPOCH   = 350
BSTAR          = -.10040517E-2
MEAN_MOTION_DOT = -.147868E-2
MEAN_MOTION_DDOT = 0

CCSDS_OMM_VERS = 2.0
CREATION_DATE  = 
ORIGINATOR     = 

OBJECT_NAME    = STARLINK-36694
OBJECT_ID      = 2026-022F
CENTER_NAME    = EARTH
REF_FRAME      = TEME
TIME_SYSTEM    = UTC
MEAN_ELEMENT_THEORY = SGP/SGP4

EPOCH          = 2026-02-16T14:00:01.999872
MEAN_MOTION    = 15.75269241
ECCENTRICITY   = .00013103
INCLINATION    = 97.2842
RA_OF_ASC_NODE = 80.5229
ARG_OF_PERICENTER = 87.5146
MEAN_ANOMALY   = 15.6923

EPHEMERIS_TYPE = 0
CLASSIFICATION_TYPE = U
NORAD_CAT_ID   = 67653
ELEMENT_SET_NO = 999
REV_AT_EPOCH   = 350
BSTAR          = -.78059479E-3
MEAN_MOTION_DOT = -.115397E-2
MEAN_MOTION_DDOT = 0

CCSDS_OMM_VERS = 2.0
CREATION_DATE  = 
ORIGINATOR     = 

OBJECT_NAME    = STARLINK-36620
OBJECT_ID      = 2026-022G
CENTER_NAME    = EARTH
REF_FRAME      = TEME
TIME_SYSTEM    = UTC
MEAN_ELEMENT_THEORY = SGP/SGP4

EPOCH          = 2026-02-16T14:00:01.999872
MEAN_MOTION    = 15.75251389
ECCENTRICITY   = .00011
INCLINATION    = 97.2841
RA_OF_ASC_NODE = 80.5226
ARG_OF_PERICENTER = 96.3534
MEAN_ANOMALY   = 8.8498

EPHEMERIS_TYPE = 0
CLASSIFICATION_TYPE = U
NORAD_CAT_ID   = 67654
ELEMENT_SET_NO = 999
REV_AT_EPOCH   = 350
BSTAR          = -.62631999E-3
MEAN_MOTION_DOT = -.92786E-3
MEAN_MOTION_DDOT = 0

CCSDS_OMM_VERS = 2.0
CREATION_DATE  = 
ORIGINATOR     = 

OBJECT_NAME    = STARLINK-36720
OBJECT_ID      = 2026-022H
CENTER_NAME    = EARTH
REF_FRAME      = TEME
TIME_SYSTEM    = UTC
MEAN_ELEMENT_THEORY = SGP/SGP4

EPOCH          = 2026-02-16T14:00:01.999872
MEAN_MOTION    = 15.75267124
ECCENTRICITY   = .00015901
INCLINATION    = 97.2840
RA_OF_ASC_NODE = 80.5278
ARG_OF_PERICENTER = 94.1656
MEAN_ANOMALY   = 21.0468

EPHEMERIS_TYPE = 0
CLASSIFICATION_TYPE = U
NORAD_CAT_ID   = 67655
ELEMENT_SET_NO = 999
REV_AT_EPOCH   = 350
BSTAR          = -.82251989E-3
MEAN_MOTION_DOT = -.121496E-2
MEAN_MOTION_DDOT = 0

CCSDS_OMM_VERS = 2.0
CREATION_DATE  = 
ORIGINATOR     = 

OBJECT_NAME    = STARLINK-36688
OBJECT_ID      = 2026-022J
CENTER_NAME    = EARTH
REF_FRAME      = TEME
TIME_SYSTEM    = UTC
MEAN_ELEMENT_THEORY = SGP/SGP4

EPOCH          = 2026-02-16T14:00:01.999872
MEAN_MOTION    = 15.75269921
ECCENTRICITY   = .00013863
INCLINATION    = 97.2843
RA_OF_ASC_NODE = 80.5287
ARG_OF_PERICENTER = 96.3684
MEAN_ANOMALY   = 22.8361

EPHEMERIS_TYPE = 0
CLASSIFICATION_TYPE = U
NORAD_CAT_ID   = 67656
ELEMENT_SET_NO = 999
REV_AT_EPOCH   = 350
BSTAR          = -.80575327E-3
MEAN_MOTION_DOT = -.119066E-2
MEAN_MOTION_DDOT = 0

CCSDS_OMM_VERS = 2.0
CREATION_DATE  = 
ORIGINATOR     = 

OBJECT_NAME    = STARLINK-36706
OBJECT_ID      = 2026-022K
CENTER_NAME    = EARTH
REF_FRAME      = TEME
TIME_SYSTEM    = UTC
MEAN_ELEMENT_THEORY = SGP/SGP4

EPOCH          = 2026-02-16T14:00:01.999872
MEAN_MOTION    = 15.75239134
ECCENTRICITY   = .00015214
INCLINATION    = 97.2842
RA_OF_ASC_NODE = 80.5307
ARG_OF_PERICENTER = 90.5438
MEAN_ANOMALY   = 36.6683

EPHEMERIS_TYPE = 0
CLASSIFICATION_TYPE = U
NORAD_CAT_ID   = 67657
ELEMENT_SET_NO = 999
REV_AT_EPOCH   = 347
BSTAR          = -.69915863E-3
MEAN_MOTION_DOT = -.103384E-2
MEAN_MOTION_DDOT = 0

CCSDS_OMM_VERS = 2.0
CREATION_DATE  = 
ORIGINATOR     = 

OBJECT_NAME    = STARLINK-36701
OBJECT_ID      = 2026-022L
CENTER_NAME    = EARTH
REF_FRAME      = TEME
TIME_SYSTEM    = UTC
MEAN_ELEMENT_THEORY = SGP/SGP4

EPOCH          = 2026-02-16T14:00:01.999872
MEAN_MOTION    = 15.75248146
ECCENTRICITY   = .00013055
INCLINATION    = 97.2842
RA_OF_ASC_NODE = 80.5341
ARG_OF_PERICENTER = 91.5131
MEAN_ANOMALY   = 41.6948

EPHEMERIS_TYPE = 0
CLASSIFICATION_TYPE = U
NORAD_CAT_ID   = 67658
ELEMENT_SET_NO = 999
REV_AT_EPOCH   = 350
BSTAR          = -.75498182E-3
MEAN_MOTION_DOT = -.111563E-2
MEAN_MOTION_DDOT = 0

CCSDS_OMM_VERS = 2.0
CREATION_DATE  = 
ORIGINATOR     = 

OBJECT_NAME    = STARLINK-36642
OBJECT_ID      = 2026-022M
CENTER_NAME    = EARTH
REF_FRAME      = TEME
TIME_SYSTEM    = UTC
MEAN_ELEMENT_THEORY = SGP/SGP4

EPOCH          = 2026-02-16T14:00:01.999872
MEAN_MOTION    = 15.75249357
ECCENTRICITY   = .00012095
INCLINATION    = 97.2838
RA_OF_ASC_NODE = 80.5371
ARG_OF_PERICENTER = 89.2617
MEAN_ANOMALY   = 49.9396

EPHEMERIS_TYPE = 0
CLASSIFICATION_TYPE = U
NORAD_CAT_ID   = 67659
ELEMENT_SET_NO = 999
REV_AT_EPOCH   = 350
BSTAR          = -.79822379E-3
MEAN_MOTION_DOT = -.117864E-2
MEAN_MOTION_DDOT = 0

CCSDS_OMM_VERS = 2.0
CREATION_DATE  = 
ORIGINATOR     = 

OBJECT_NAME    = STARLINK-36673
OBJECT_ID      = 2026-022N
CENTER_NAME    = EARTH
REF_FRAME      = TEME
TIME_SYSTEM    = UTC
MEAN_ELEMENT_THEORY = SGP/SGP4

EPOCH          = 2026-02-16T14:00:01.999872
MEAN_MOTION    = 15.75231007
ECCENTRICITY   = .00013419
INCLINATION    = 97.2836
RA_OF_ASC_NODE = 80.5387
ARG_OF_PERICENTER = 93.5437
MEAN_ANOMALY   = 53.6655

EPHEMERIS_TYPE = 0
CLASSIFICATION_TYPE = U
NORAD_CAT_ID   = 67660
ELEMENT_SET_NO = 999
REV_AT_EPOCH   = 350
BSTAR          = -.70965531E-3
MEAN_MOTION_DOT = -.104877E-2
MEAN_MOTION_DDOT = 0

CCSDS_OMM_VERS = 2.0
CREATION_DATE  = 
ORIGINATOR     = 

OBJECT_NAME    = STARLINK-36674
OBJECT_ID      = 2026-022P
CENTER_NAME    = EARTH
REF_FRAME      = TEME
TIME_SYSTEM    = UTC
MEAN_ELEMENT_THEORY = SGP/SGP4

EPOCH          = 2026-02-16T14:00:01.999872
MEAN_MOTION    = 15.75238737
ECCENTRICITY   = .00016866
INCLINATION    = 97.2842
RA_OF_ASC_NODE = 80.5431
ARG_OF_PERICENTER = 102.0050
MEAN_ANOMALY   = 53.2093

EPHEMERIS_TYPE = 0
CLASSIFICATION_TYPE = U
NORAD_CAT_ID   = 67661
ELEMENT_SET_NO = 999
REV_AT_EPOCH   = 350
BSTAR          = -.7690385E-3
MEAN_MOTION_DOT = -.113571E-2
MEAN_MOTION_DDOT = 0

CCSDS_OMM_VERS = 2.0
CREATION_DATE  = 
ORIGINATOR     = 

OBJECT_NAME    = STARLINK-36700
OBJECT_ID      = 2026-022Q
CENTER_NAME    = EARTH
REF_FRAME      = TEME
TIME_SYSTEM    = UTC
MEAN_ELEMENT_THEORY = SGP/SGP4

EPOCH          = 2026-02-16T14:00:01.999872
MEAN_MOTION    = 15.75206824
ECCENTRICITY   = .00014012
INCLINATION    = 97.2833
RA_OF_ASC_NODE = 80.5478
ARG_OF_PERICENTER = 91.3789
MEAN_ANOMALY   = 75.8372

EPHEMERIS_TYPE = 0
CLASSIFICATION_TYPE = U
NORAD_CAT_ID   = 67662
ELEMENT_SET_NO = 999
REV_AT_EPOCH   = 350
BSTAR          = -.27986882E-3
MEAN_MOTION_DOT = -.41701E-3
MEAN_MOTION_DDOT = 0

CCSDS_OMM_VERS = 2.0
CREATION_DATE  = 
ORIGINATOR     = 

OBJECT_NAME    = STARLINK-36675
OBJECT_ID      = 2026-022R
CENTER_NAME    = EARTH
REF_FRAME      = TEME
TIME_SYSTEM    = UTC
MEAN_ELEMENT_THEORY = SGP/SGP4

EPOCH          = 2026-02-16T14:00:01.999872
MEAN_MOTION    = 15.75219683
ECCENTRICITY   = .00014159
INCLINATION    = 97.2836
RA_OF_ASC_NODE = 80.5447
ARG_OF_PERICENTER = 93.0560
MEAN_ANOMALY   = 66.1500

EPHEMERIS_TYPE = 0
CLASSIFICATION_TYPE = U
NORAD_CAT_ID   = 67663
ELEMENT_SET_NO = 999
REV_AT_EPOCH   = 350
BSTAR          = -.33457689E-3
MEAN_MOTION_DOT = -.49808E-3
MEAN_MOTION_DDOT = 0

