STARLINK-36699          
1 67652U 26022E   26047.58335648 -.00147868  00000+0 -10041-2 0  9992
2 67652  97.2841  80.5173 0001214  91.8655 359.3464 15.75274554  3502
STARLINK-36694          
1 67653U 26022F   26047.58335648 -.00115397  00000+0 -78059-3 0  9999
2 67653  97.2842  80.5229 0001310  87.5146  15.6923 15.75269241  3509
STARLINK-36620          
1 67654U 26022G   26047.58335648 -.00092786  00000+0 -62632-3 0  9996
2 67654  97.2841  80.5226 0001100  96.3534   8.8498 15.75251389  3507
STARLINK-36720          
1 67655U 26022H   26047.58335648 -.00121496  00000+0 -82252-3 0  9998
2 67655  97.2840  80.5278 0001590  94.1656  21.0468 15.75267124  3506
STARLINK-36688          
1 67656U 26022J   26047.58335648 -.00119066  00000+0 -80575-3 0  9995
2 67656  97.2843  80.5287 0001386  96.3684  22.8361 15.75269921  3506
STARLINK-36706          
1 67657U 26022K   26047.58335648 -.00103384  00000+0 -69916-3 0  9998
2 67657  97.2842  80.5307 0001521  90.5438  36.6683 15.75239134  3472
STARLINK-36701          
1 67658U 26022L   26047.58335648 -.00111563  00000+0 -75498-3 0  9999
2 67658  97.2842  80.5341 0001305  91.5131  41.6948 15.75248146  3509
STARLINK-36642          
1 67659U 26022M   26047.58335648 -.00117864  00000+0 -79822-3 0  9995
2 67659  97.2838  80.5371 0001209  89.2617  49.9396 15.75249357  3507
STARLINK-36673          
1 67660U 26022N   26047.58335648 -.00104877  00000+0 -70966-3 0  9997
2 67660  97.2836  80.5387 0001341  93.5437  53.6655 15.75231007  3502
STARLINK-36674          
1 67661U 26022P   26047.58335648 -.00113571  00000+0 -76904-3 0  9997
2 67661  97.2842  80.5431 0001686 102.0050  53.2093 15.75238737  3508
STARLINK-36700          
1 67662U 26022Q   26047.58335648 -.00041701  00000+0 -27987-3 0  9990
2 67662  97.2833  80.5478 0001401  91.3789  75.8372 15.75206824  3506
STARLINK-36675          
1 67663U 26022R   26047.58335648 -.00049808  00000+0 -33458-3 0  9997
2 67663  97.2836  80.5447 0001415  93.0560  66.1500 15.75219683  3500
